NORAD_CAT_ID,OBJECT_NAME,OBJECT_TYPE,EPOCH,MEAN_MOTION,ECCENTRICITY,INCLINATION,RA_OF_ASC_NODE,ARG_OF_PERICENTER,MEAN_ANOMALY,BSTAR,MEAN_MOTION_DOT,MEAN_MOTION_DDOT,TLE_LINE0,TLE_LINE1,TLE_LINE2,SEMIMAJOR_AXIS,PERIOD,APOGEE,PERIGEE,DECAYED
50169.0,STARLINK-3301,PAYLOAD,2024-05-06 03:29:05,15.08849571,0.0001268,53.2176,28.2931,100.798,259.3155,0.00036262,5.489e-05,0.0,0 STARLINK-3301,1 50169U 21125P   24127.14519946  .00005489  00000-0  36262-3 0  9995,2 50169  53.2176  28.2931 0001268 100.7980 259.3155 15.08849571131984,6917.851,95.437,540.593,538.839,0.0
50169.0,STARLINK-3301,PAYLOAD,2024-05-06 09:50:37,15.08849678,0.0001163,53.2169,27.1019,98.4411,261.6713,0.00025143,3.717e-05,0.0,0 STARLINK-3301,1 50169U 21125P   24127.41015820  .00003717  00000-0  25143-3 0  9995,2 50169  53.2169  27.1019 0001163  98.4411 261.6713 15.08849678135110,6917.851,95.437,540.52,538.911,0.0
50169.0,STARLINK-3301,PAYLOAD,2024-05-06 20:58:19,15.08844907,0.000132,53.2178,25.0205,98.1349,261.9793,0.00012434,1.692e-05,0.0,0 STARLINK-3301,1 50169U 21125P   24127.87383946  .00001692  00000-0  12434-3 0  9991,2 50169  53.2178  25.0205 0001320  98.1349 261.9793 15.08844907132091,6917.865,95.437,540.644,538.817,0.0
50169.0,STARLINK-3301,PAYLOAD,2024-05-06 22:33:42,15.08847022,0.0001347,53.218,24.7236,97.8845,262.23,0.00014357,1.998e-05,0.0,0 STARLINK-3301,1 50169U 21125P   24127.94007807  .00001998  00000-0  14357-3 0  9993,2 50169  53.2180  24.7236 0001347  97.8845 262.2300 15.08847022135193,6917.859,95.437,540.656,538.792,0.0
50169.0,STARLINK-3301,PAYLOAD,2024-05-07 09:41:24,15.08842824,0.0001253,53.2186,22.641,87.149,272.9646,4.9511e-05,5e-06,0.0,0 STARLINK-3301,1 50169U 21125P   24128.40375930  .00000500  00000-0  49511-4 0  9999,2 50169  53.2186  22.6410 0001253  87.1490 272.9646 15.08842824135268,6917.872,95.437,540.604,538.87,0.0
50169.0,STARLINK-3301,PAYLOAD,2024-05-07 20:49:07,15.08833223,0.0001756,53.2182,20.5613,91.1764,268.943,-0.00014274,-2.559e-05,0.0,0 STARLINK-3301,1 50169U 21125P   24128.86744629 -.00002559  00000-0 -14274-3 0  9999,2 50169  53.2182  20.5613 0001756  91.1764 268.9430 15.08833223132247,6917.901,95.438,540.981,538.551,0.0
50169.0,STARLINK-3301,PAYLOAD,2024-05-07 22:24:30,15.08831592,0.000153,53.2193,20.2647,98.5127,261.6038,-0.00019326,-3.362e-05,0.0,0 STARLINK-3301,1 50169U 21125P   24128.93368655 -.00003362  00000-0 -19326-3 0  9994,2 50169  53.2193  20.2647 0001530  98.5127 261.6038 15.08831592135342,6917.906,95.438,540.83,538.713,0.0
50169.0,STARLINK-3301,PAYLOAD,2024-05-08 03:10:39,15.08843448,0.0001147,53.218,19.3714,100.2069,259.9052,2.3102e-05,8e-07,0.0,0 STARLINK-3301,1 50169U 21125P   24129.13240341  .00000080  00000-0  23102-4 0  9998,2 50169  53.2180  19.3714 0001147 100.2069 259.9052 15.08843448132281,6917.87,95.437,540.528,538.941,0.0
50169.0,STARLINK-3301,PAYLOAD,2024-05-08 09:32:12,15.08839439,0.0001207,53.2184,18.1816,96.7886,263.3244,-1.1233e-05,-4.67e-06,0.0,0 STARLINK-3301,1 50169U 21125P   24129.39736696 -.00000467  00000-0 -11233-4 0  9992,2 50169  53.2184  18.1816 0001207  96.7886 263.3244 15.08839439135413,6917.882,95.438,540.582,538.912,0.0
50169.0,STARLINK-3301,PAYLOAD,2024-05-08 20:39:54,15.08836969,0.0001284,53.2189,16.0997,89.7404,270.3736,4.8423e-05,4.83e-06,0.0,0 STARLINK-3301,1 50169U 21125P   24129.86104857  .00000483  00000-0  48423-4 0  9999,2 50169  53.2189  16.0997 0001284  89.7404 270.3736 15.08836969132391,6917.89,95.438,540.643,538.866,0.0
50169.0,STARLINK-3301,PAYLOAD,2024-05-08 22:15:17,15.08845246,0.0001212,53.2186,15.8027,90.2306,269.8825,-2.8406e-05,-7.4e-06,0.0,0 STARLINK-3301,1 50169U 21125P   24129.92728531 -.00000740  00000-0 -28406-4 0  9994,2 50169  53.2186  15.8027 0001212  90.2306 269.8825 15.08845246135492,6917.864,95.437,540.568,538.891,0.0
50169.0,STARLINK-3301,PAYLOAD,2024-05-08 23:50:40,15.08846944,0.0001264,53.2176,15.5055,89.4679,270.6458,3.751e-06,-2.28e-06,0.0,0 STARLINK-3301,1 50169U 21125P   24129.99352322 -.00000228  00000-0  37510-5 0  9999,2 50169  53.2176  15.5055 0001264  89.4679 270.6458 15.08846944132416,6917.859,95.437,540.599,538.85,0.0
50169.0,STARLINK-3301,PAYLOAD,2024-05-09 20:30:41,15.08839059,0.000106,53.2169,11.6401,99.3146,260.7966,0.00024805,3.662e-05,0.0,0 STARLINK-3301,1 50169U 21125P   24130.85464558  .00003662  00000-0  24805-3 0  9996,2 50169  53.2169  11.6401 0001060  99.3146 260.7966 15.08839059132540,6917.883,95.438,540.482,539.015,0.0
50169.0,STARLINK-3301,PAYLOAD,2024-05-09 22:06:04,15.08846798,0.0001179,53.2172,11.3427,96.3099,263.8027,0.00017476,2.495e-05,0.0,0 STARLINK-3301,1 50169U 21125P   24130.92088346  .00002495  00000-0  17476-3 0  9990,2 50169  53.2172  11.3427 0001179  96.3099 263.8027 15.08846798135648,6917.86,95.437,540.54,538.909,0.0
50169.0,STARLINK-3301,PAYLOAD,2024-05-10 01:16:50,15.08851033,0.0001268,53.2176,10.7461,75.056,285.0573,0.0002011,2.915e-05,0.0,0 STARLINK-3301,1 50169U 21125P   24131.05336086  .00002915  00000-0  20110-3 0  9998,2 50169  53.2176  10.7461 0001268  75.0560 285.0573 15.08851033132578,6917.847,95.437,540.589,538.834,0.0
50169.0,STARLINK-3301,PAYLOAD,2024-05-10 09:13:46,15.08838685,0.0001228,53.2183,9.2608,79.2001,280.9129,9.1263e-05,1.165e-05,0.0,0 STARLINK-3301,1 50169U 21125P   24131.38456965  .00001165  00000-0  91263-4 0  9997,2 50169  53.2183   9.2608 0001228  79.2001 280.9129 15.08838685132629,6917.884,95.438,540.599,538.9,0.0
50169.0,STARLINK-3301,PAYLOAD,2024-05-10 21:56:51,15.08846969,0.0001473,53.2167,6.8857,63.5065,296.6078,0.00014465,2.015e-05,0.0,0 STARLINK-3301,1 50169U 21125P   24131.91448736  .00002015  00000-0  14465-3 0  9996,2 50169  53.2167   6.8857 0001473  63.5065 296.6078 15.08846969135790,6917.859,95.437,540.743,538.705,0.0
50169.0,STARLINK-3301,PAYLOAD,2024-05-11 01:07:37,15.08871946,0.0001203,53.2182,6.2817,91.2536,268.8594,0.00055992,8.642e-05,0.0,0 STARLINK-3301,1 50169U 21125P   24132.04695747  .00008642  00000-0  55992-3 0  9999,2 50169  53.2182   6.2817 0001203  91.2536 268.8594 15.08871946132726,6917.783,95.436,540.48,538.816,0.0
50169.0,STARLINK-3301,PAYLOAD,2024-05-11 09:04:30,15.08919075,8.59e-05,53.2163,4.8008,77.2215,282.8873,0.0012228,0.00019269,0.0,0 STARLINK-3301,1 50169U 21125P   24132.37812830  .00019269  00000-0  12228-2 0  9990,2 50169  53.2163   4.8008 0000859  77.2215 282.8873 15.08919075132772,6917.639,95.433,540.098,538.909,0.0
50169.0,STARLINK-3301,PAYLOAD,2024-05-11 21:47:33,15.08922644,0.0001616,53.2168,2.421,98.0589,262.0587,0.0011887,0.00018724,0.0,0 STARLINK-3301,1 50169U 21125P   24132.90803149  .00018724  00000-0  11887-2 0  9997,2 50169  53.2168   2.4210 0001616  98.0589 262.0587 15.08922644132850,6917.628,95.432,540.611,538.375,0.0
50169.0,STARLINK-3301,PAYLOAD,2024-05-12 00:58:20,15.0889779,0.0001392,53.2168,1.8272,85.3054,274.8097,0.00050304,7.74e-05,0.0,0 STARLINK-3301,1 50169U 21125P   24133.04051339  .00007740  00000-0  50304-3 0  9993,2 50169  53.2168   1.8272 0001392  85.3054 274.8097 15.08897790132870,6917.704,95.434,540.532,538.606,0.0
50169.0,STARLINK-3301,PAYLOAD,2024-05-12 21:38:25,15.08770921,9.58e-05,53.2173,357.9626,82.2226,277.8875,-0.0017321,-0.00027696,0.0,0 STARLINK-3301,1 50169U 21125P   24133.90168665 -.00027696  00000-0 -17321-2 0  9994,2 50169  53.2173 357.9626 0000958  82.2226 277.8875 15.08770921133007,6918.092,95.442,540.619,539.294,0.0
50169.0,STARLINK-3301,PAYLOAD,2024-05-13 15:07:41,15.08798277,9.85e-05,53.2188,354.6914,78.186,281.9243,2.7986e-05,1.57e-06,0.0,0 STARLINK-3301,1 50169U 21125P   24134.63034109  .00000157  00000-0  27986-4 0  9991,2 50169  53.2188 354.6914 0000985  78.1860 281.9243 15.08798277136209,6918.008,95.44,540.554,539.191,0.0
50169.0,STARLINK-3301,PAYLOAD,2024-05-13 21:29:13,15.08838421,0.0001541,53.216,353.4986,69.8534,290.2623,0.00059554,9.202e-05,0.0,0 STARLINK-3301,1 50169U 21125P   24134.89529335  .00009202  00000-0  59554-3 0  9994,2 50169  53.2160 353.4986 0001541  69.8534 290.2623 15.08838421136244,6917.885,95.438,540.816,538.684,0.0
50169.0,STARLINK-3301,PAYLOAD,2024-05-14 07:01:32,15.0884137,0.0001165,53.2172,351.7155,54.7923,305.3178,0.00081615,0.00012725,0.0,0 STARLINK-3301,1 50169U 21125P   24135.29273769  .00012725  00000-0  81615-3 0  9993,2 50169  53.2172 351.7155 0001165  54.7923 305.3178 15.08841370133217,6917.876,95.437,540.547,538.935,0.0
50169.0,STARLINK-3301,PAYLOAD,2024-05-14 14:58:28,15.08832579,0.0001199,53.2173,350.2286,46.6863,313.4229,0.0011096,0.00017412,0.0,0 STARLINK-3301,1 50169U 21125P   24135.62394229  .00017412  00000-0  11096-2 0  9998,2 50169  53.2173 350.2286 0001199  46.6863 313.4229 15.08832579136353,6917.903,95.438,540.598,538.939,0.0
50169.0,STARLINK-3301,PAYLOAD,2024-05-14 21:20:00,15.08852797,8.96e-05,53.217,349.0381,42.003,318.1031,0.0011634,0.00018282,0.0,0 STARLINK-3301,1 50169U 21125P   24135.88889256  .00018282  00000-0  11634-2 0  9999,2 50169  53.2170 349.0381 0000896  42.0030 318.1031 15.08852797136392,6917.841,95.437,540.326,539.086,0.0
50169.0,STARLINK-3301,PAYLOAD,2024-05-15 06:52:20,15.08817206,0.0001269,53.2168,347.2532,45.811,314.2986,0.0003356,5.054e-05,0.0,0 STARLINK-3301,1 50169U 21125P   24136.28635346  .00005054  00000-0  33560-3 0  9999,2 50169  53.2168 347.2532 0001269  45.8110 314.2986 15.08817206133368,6917.95,95.439,540.693,538.937,0.0
50169.0,STARLINK-3301,PAYLOAD,2024-05-15 14:49:16,15.08808234,9.24e-05,53.2172,345.7671,49.7401,310.3672,-0.00064981,-0.00010605,0.0,0 STARLINK-3301,1 50169U 21125P   24136.61755605 -.00010605  00000-0 -64981-3 0  9998,2 50169  53.2172 345.7671 0000924  49.7401 310.3672 15.08808234136502,6917.977,95.44,540.482,539.203,0.0
50169.0,STARLINK-3301,PAYLOAD,2024-05-15 21:10:49,15.08820256,8.86e-05,53.2155,344.5789,39.4348,320.6709,-0.00037718,-6.282e-05,0.0,0 STARLINK-3301,1 50169U 21125P   24136.88251402 -.00006282  00000-0 -37718-3 0  9997,2 50169  53.2155 344.5789 0000886  39.4348 320.6709 15.08820256136540,6917.941,95.439,540.419,539.193,0.0
